NORAD_CAT_ID,OBJECT_NAME,OBJECT_TYPE,EPOCH,MEAN_MOTION,ECCENTRICITY,INCLINATION,RA_OF_ASC_NODE,ARG_OF_PERICENTER,MEAN_ANOMALY,BSTAR,MEAN_MOTION_DOT,MEAN_MOTION_DDOT,TLE_LINE0,TLE_LINE1,TLE_LINE2,SEMIMAJOR_AXIS,PERIOD,APOGEE,PERIGEE,DECAYED
54005.0,STARLINK-5135,PAYLOAD,2023-02-07 20:30:45,15.08843159,0.000117,53.2147,227.9128,84.367,275.7455,7.5612e-05,9.16e-06,0.0,0 STARLINK-5135,1 54005U 22125AT  23038.85469109  .00000916  00000-0  75612-4 0  9995,2 54005  53.2147 227.9128 0001170  84.3670 275.7455 15.08843159 19500,6917.871,95.437,540.545,538.926,0.0
54005.0,STARLINK-5135,PAYLOAD,2023-02-08 06:03:04,15.08840984,0.0001233,53.215,226.1287,81.6282,278.485,1.7444e-05,-1e-07,0.0,0 STARLINK-5135,1 54005U 22125AT  23039.25213376 -.00000010  00000-0  17444-4 0  9998,2 54005  53.2150 226.1287 0001233  81.6282 278.4850 15.08840984 19614,6917.877,95.437,540.595,538.889,0.0
54005.0,STARLINK-5135,PAYLOAD,2023-02-08 18:46:09,15.08844143,0.0001294,53.2154,223.7493,83.7719,276.342,-5.1214e-05,-1.103e-05,0.0,0 STARLINK-5135,1 54005U 22125AT  23039.78205312 -.00001103  00000-0 -51214-4 0  9995,2 54005  53.2154 223.7493 0001294  83.7719 276.3420 15.08844143 19649,6917.868,95.437,540.628,538.838,0.0
54005.0,STARLINK-5135,PAYLOAD,2023-02-09 18:36:56,15.08835581,0.0001172,53.2145,219.2886,85.5739,274.5387,0.00012299,1.67e-05,0.0,0 STARLINK-5135,1 54005U 22125AT  23040.77565491  .00001670  00000-0  12299-3 0  9999,2 54005  53.2145 219.2886 0001172  85.5739 274.5387 15.08835581 19842,6917.894,95.438,540.57,538.948,0.0
54005.0,STARLINK-5135,PAYLOAD,2023-02-10 16:52:20,15.08837951,0.0001114,53.2161,215.1266,88.2719,271.8401,7.1517e-05,8.51e-06,0.0,0 STARLINK-5135,1 54005U 22125AT  23041.70301689  .00000851  00000-0  71517-4 0  9999,2 54005  53.2161 215.1266 0001114  88.2719 271.8401 15.08837951 19931,6917.887,95.438,540.522,538.981,0.0
54005.0,STARLINK-5135,PAYLOAD,2023-02-11 04:00:02,15.08838979,0.0001143,53.2161,213.0428,83.1767,276.9355,3.117e-05,2.08e-06,0.0,0 STARLINK-5135,1 54005U 22125AT  23042.16669761  .00000208  00000-0  31170-4 0  9995,2 54005  53.2161 213.0428 0001143  83.1767 276.9355 15.08838979 20057,6917.884,95.438,540.539,538.958,0.0
54005.0,STARLINK-5135,PAYLOAD,2023-02-11 19:53:54,15.08840169,0.0001268,53.2168,210.0729,109.0573,251.0557,6.6717e-05,7.74e-06,0.0,0 STARLINK-5135,1 54005U 22125AT  23042.82909840  .00000774  00000-0  66717-4 0  9996,2 54005  53.2168 210.0729 0001268 109.0573 251.0557 15.08840169 20104,6917.88,95.438,540.622,538.868,0.0
54005.0,STARLINK-5135,PAYLOAD,2023-02-12 13:23:09,15.08838546,8.79e-05,53.2161,206.7987,102.6915,257.4176,-4.6098e-05,-1.021e-05,0.0,0 STARLINK-5135,1 54005U 22125AT  23043.55774475 -.00001021  00000-0 -46098-4 0  9999,2 54005  53.2161 206.7987 0000879 102.6915 257.4176 15.08838546 20216,6917.885,95.438,540.358,539.142,0.0
54005.0,STARLINK-5135,PAYLOAD,2023-02-12 21:20:04,15.08848015,0.0001182,53.2164,205.3146,95.5223,264.5904,3.1222e-05,2.09e-06,0.0,0 STARLINK-5135,1 54005U 22125AT  23043.88893673  .00000209  00000-0  31222-4 0  9995,2 54005  53.2164 205.3146 0001182  95.5223 264.5904 15.08848015 20312,6917.856,95.437,540.539,538.903,0.0
54005.0,STARLINK-5135,PAYLOAD,2023-02-13 03:41:37,15.08838108,0.0001129,53.2136,204.1219,96.3498,263.7623,6.1446e-06,-1.9e-06,0.0,0 STARLINK-5135,1 54005U 22125AT  23044.15390381 -.00000190  00000-0  61446-5 0  9996,2 54005  53.2136 204.1219 0001129  96.3498 263.7623 15.08838108 20358,6917.886,95.438,540.532,538.97,0.0
54005.0,STARLINK-5135,PAYLOAD,2023-02-14 03:32:23,15.08845252,8.74e-05,53.2162,199.6621,84.367,275.7421,8.808e-05,1.115e-05,0.0,0 STARLINK-5135,1 54005U 22125AT  23045.14749779  .00001115  00000-0  88080-4 0  9994,2 54005  53.2162 199.6621 0000874  84.3670 275.7421 15.08845252 20501,6917.864,95.437,540.334,539.125,0.0
54005.0,STARLINK-5135,PAYLOAD,2023-02-14 16:15:29,15.08838703,9.87e-05,53.2156,197.2834,82.1084,278.002,8.0667e-05,9.96e-06,0.0,0 STARLINK-5135,1 54005U 22125AT  23045.67742292  .00000996  00000-0  80667-4 0  9994,2 54005  53.2156 197.2834 0000987  82.1084 278.0020 15.08838703 20586,6917.884,95.438,540.432,539.067,0.0
54005.0,STARLINK-5135,PAYLOAD,2023-02-15 03:23:10,15.08849329,8.48e-05,53.2163,195.2017,96.3383,263.7706,6.947e-05,8.18e-06,0.0,0 STARLINK-5135,1 54005U 22125AT  23046.14109430  .00000818  00000-0  69470-4 0  9990,2 54005  53.2163 195.2017 0000848  96.3383 263.7706 15.08849329 20656,6917.852,95.437,540.304,539.13,0.0
54005.0,STARLINK-5135,PAYLOAD,2023-02-15 16:06:15,15.08844926,0.0001246,53.2167,192.8232,83.185,276.9284,6.8582e-05,8.04e-06,0.0,0 STARLINK-5135,1 54005U 22125AT  23046.67101788  .00000804  00000-0  68582-4 0  9994,2 54005  53.2167 192.8232 0001246  83.1850 276.9284 15.08844926 20732,6917.865,95.437,540.592,538.868,0.0
54005.0,STARLINK-5135,PAYLOAD,2023-02-16 12:46:16,15.08848038,0.000128,53.2157,188.9591,76.7104,283.403,0.0001012,1.323e-05,0.0,0 STARLINK-5135,1 54005U 22125AT  23047.53213279  .00001323  00000-0  10120-3 0  9990,2 54005  53.2157 188.9591 0001280  76.7104 283.4030 15.08848038 20812,6917.856,95.437,540.606,538.835,0.0
54005.0,STARLINK-5135,PAYLOAD,2023-02-16 19:07:47,15.08860467,0.0001257,53.2168,187.7701,74.896,285.2171,0.00018713,2.693e-05,0.0,0 STARLINK-5135,1 54005U 22125AT  23047.79708069  .00002693  00000-0  18713-3 0  9991,2 54005  53.2168 187.7701 0001257  74.8960 285.2171 15.08860467 20903,6917.818,95.436,540.552,538.813,0.0
54005.0,STARLINK-5135,PAYLOAD,2023-02-17 12:37:04,15.08828098,0.0001136,53.2168,184.4985,89.9999,270.1123,-6.8465e-05,-1.377e-05,0.0,0 STARLINK-5135,1 54005U 22125AT  23048.52574874 -.00001377  00000-0 -68465-4 0  9998,2 54005  53.2168 184.4985 0001136  89.9999 270.1123 15.08828098 20966,6917.917,95.438,540.568,538.996,0.0
54005.0,STARLINK-5135,PAYLOAD,2023-02-17 15:47:50,15.08830174,0.0001141,53.2164,183.9039,88.0966,272.0156,-5.0213e-05,-1.087e-05,0.0,0 STARLINK-5135,1 54005U 22125AT  23048.65822780 -.00001087  00000-0 -50213-4 0  9994,2 54005  53.2164 183.9039 0001141  88.0966 272.0156 15.08830174 21030,6917.91,95.438,540.565,538.986,0.0
54005.0,STARLINK-5135,PAYLOAD,2023-02-17 18:58:37,15.08831451,0.0001219,53.2174,183.3111,90.0467,270.0665,-3.1597e-05,-7.91e-06,0.0,0 STARLINK-5135,1 54005U 22125AT  23048.79070713 -.00000791  00000-0 -31597-4 0  9995,2 54005  53.2174 183.3111 0001219  90.0467 270.0665 15.08831451 21000,6917.907,95.438,540.615,538.928,0.0
54005.0,STARLINK-5135,PAYLOAD,2023-02-18 07:41:42,15.08827959,0.0001307,53.2193,180.9316,91.5793,268.5349,-9.7615e-05,-1.841e-05,0.0,0 STARLINK-5135,1 54005U 22125AT  23049.32063527 -.00001841  00000-0 -97615-4 0  9990,2 54005  53.2193 180.9316 0001307  91.5793 268.5349 15.08827959 21084,6917.917,95.438,540.686,538.878,0.0
54005.0,STARLINK-5135,PAYLOAD,2023-02-19 01:10:56,15.08838165,8.32e-05,53.2173,177.6586,82.7873,277.3214,-0.00010903,-2.022e-05,0.0,0 STARLINK-5135,1 54005U 22125AT  23050.04926822 -.00002022  00000-0 -10903-3 0  9993,2 54005  53.2173 177.6586 0000832  82.7873 277.3214 15.08838165 21245,6917.886,95.438,540.327,539.175,0.0
54005.0,STARLINK-5135,PAYLOAD,2023-02-19 10:43:16,15.08829644,0.0001025,53.2162,175.875,87.0621,273.0489,0.00012766,1.744e-05,0.0,0 STARLINK-5135,1 54005U 22125AT  23050.44671489  .00001744  00000-0  12766-3 0  9990,2 54005  53.2162 175.8750 0001025  87.0621 273.0489 15.08829644 21306,6917.912,95.438,540.486,539.068,0.0
54005.0,STARLINK-5135,PAYLOAD,2023-02-19 13:54:02,15.08832257,0.0001147,53.2154,175.28,88.737,271.3753,0.0001525,2.14e-05,0.0,0 STARLINK-5135,1 54005U 22125AT  23050.57919328  .00002140  00000-0  15250-3 0  9993,2 54005  53.2154 175.2800 0001147  88.7370 271.3753 15.08832257 21276,6917.904,95.438,540.563,538.976,0.0
54005.0,STARLINK-5135,PAYLOAD,2023-02-19 17:04:48,15.08840407,0.0001106,53.216,174.685,87.3782,272.7337,0.00021011,3.058e-05,0.0,0 STARLINK-5135,1 54005U 22125AT  23050.71166728  .00003058  00000-0  21011-3 0  9998,2 54005  53.2160 174.6850 0001106  87.3782 272.7337 15.08840407 21345,6917.879,95.438,540.509,538.979,0.0
54005.0,STARLINK-5135,PAYLOAD,2023-02-20 10:34:03,15.08839527,0.0001059,53.2161,171.4132,74.8998,285.2111,0.00012044,1.63e-05,0.0,0 STARLINK-5135,1 54005U 22125AT  23051.44031375  .00001630  00000-0  12044-3 0  9998,2 54005  53.2161 171.4132 0001059  74.8998 285.2111 15.08839527 21453,6917.882,95.438,540.479,539.014,0.0
54005.0,STARLINK-5135,PAYLOAD,2023-02-20 13:44:48,15.0884457,0.0001252,53.2166,170.8198,85.2016,274.9119,0.00016218,2.294e-05,0.0,0 STARLINK-5135,1 54005U 22125AT  23051.57278915  .00002294  00000-0  16218-3 0  9999,2 54005  53.2166 170.8198 0001252  85.2016 274.9119 15.08844570 21429,6917.866,95.437,540.598,538.865,0.0
54005.0,STARLINK-5135,PAYLOAD,2023-02-20 16:55:34,15.08851316,0.0001312,53.2172,170.2257,88.2541,271.8601,0.00022153,3.241e-05,0.0,0 STARLINK-5135,1 54005U 22125AT  23051.70526326  .00003241  00000-0  22153-3 0  9994,2 54005  53.2172 170.2257 0001312  88.2541 271.8601 15.08851316 21494,6917.846,95.437,540.618,538.803,0.0
54005.0,STARLINK-5135,PAYLOAD,2023-02-21 13:35:36,15.08842754,0.0001227,53.2168,166.3595,93.7001,266.4131,8.8163e-05,1.116e-05,0.0,0 STARLINK-5135,1 54005U 22125AT  23052.56639013  .00001116  00000-0  88163-4 0  9990,2 54005  53.2168 166.3595 0001227  93.7001 266.4131 15.08842754 21570,6917.872,95.437,540.586,538.888,0.0
54005.0,STARLINK-5135,PAYLOAD,2023-02-21 19:57:07,15.08856793,0.0001279,53.2168,165.1683,82.4614,277.6524,0.00011286,1.51e-05,0.0,0 STARLINK-5135,1 54005U 22125AT  23052.83133973  .00001510  00000-0  11286-3 0  9993,2 54005  53.2168 165.1683 0001279  82.4614 277.6524 15.08856793 21610,6917.829,95.436,540.579,538.809,0.0
54005.0,STARLINK-5135,PAYLOAD,2023-02-22 00:43:17,15.08830918,4.29e-05,53.2169,164.2769,110.873,249.2308,-0.00021515,-3.709e-05,0.0,0 STARLINK-5135,1 54005U 22125AT  23053.03006823 -.00003709  00000-0 -21515-3 0  9999,2 54005  53.2169 164.2769 0000429 110.8730 249.2308 15.08830918 21691,6917.908,95.438,540.07,539.476,0.0
